NUSAT-47                
1 66743U 25276CF  26201.13581806  .00003119  00000+0  14540-3 0  9991
2 66743  97.4170 274.2239 0001017 180.2255 179.8980 15.20614813 35435
NUSAT-53 (JANE GOODALL) 
1 68432U 26067S   26200.87923513  .00002894  00000+0  14209-3 0  9993
2 68432  97.4577 158.9378 0000280 274.4903  85.6299 15.18877067 16909
NUSAT-54 (BRANCA MARQU*)
1 68442U 26067AC  26200.87348500  .00002613  00000+0  13175-3 0  9991
2 68442  97.4559 158.7679 0003295 342.0074  18.1042 15.18021852 16890
