{"fetched_at":"2026-07-20T18:29:34.965Z","source":"https://celestrak.org/NORAD/elements/gp.php?NAME=NUSAT&FORMAT=JSON","constellation":"satellogic","records":[{"OBJECT_NAME":"NUSAT-47","OBJECT_ID":"2025-276CF","EPOCH":"2026-07-20T03:15:34.680384","CLASSIFICATION_TYPE":"U","MEAN_MOTION":15.20614813,"ECCENTRICITY":0.00010172,"INCLINATION":97.417,"RA_OF_ASC_NODE":274.2239,"ARG_OF_PERICENTER":180.2255,"MEAN_ANOMALY":179.898,"EPHEMERIS_TYPE":0,"NORAD_CAT_ID":66743,"ELEMENT_SET_NO":999,"REV_AT_EPOCH":3543,"BSTAR":0.00014540107,"MEAN_MOTION_DOT":0.00003119,"MEAN_MOTION_DDOT":0},{"OBJECT_NAME":"NUSAT-53 (JANE GOODALL)","OBJECT_ID":"2026-067S","EPOCH":"2026-07-19T21:06:05.915232","CLASSIFICATION_TYPE":"U","MEAN_MOTION":15.18877067,"ECCENTRICITY":0.00002802,"INCLINATION":97.4577,"RA_OF_ASC_NODE":158.9378,"ARG_OF_PERICENTER":274.4903,"MEAN_ANOMALY":85.6299,"EPHEMERIS_TYPE":0,"NORAD_CAT_ID":68432,"ELEMENT_SET_NO":999,"REV_AT_EPOCH":1690,"BSTAR":0.00014208637,"MEAN_MOTION_DOT":0.00002894,"MEAN_MOTION_DDOT":0},{"OBJECT_NAME":"NUSAT-54 (BRANCA MARQUES)","OBJECT_ID":"2026-067AC","EPOCH":"2026-07-19T20:57:49.104000","CLASSIFICATION_TYPE":"U","MEAN_MOTION":15.18021852,"ECCENTRICITY":0.00032959,"INCLINATION":97.4559,"RA_OF_ASC_NODE":158.7679,"ARG_OF_PERICENTER":342.0074,"MEAN_ANOMALY":18.1042,"EPHEMERIS_TYPE":0,"NORAD_CAT_ID":68442,"ELEMENT_SET_NO":999,"REV_AT_EPOCH":1689,"BSTAR":0.00013175259,"MEAN_MOTION_DOT":0.00002613,"MEAN_MOTION_DDOT":0}]}
